{
  "type": "FeatureCollection",
  "features": [
    {
      "type": "Feature",
      "geometry": {
        "type": "Polygon",
        "coordinates": [
          [
            [
              119.60997165000003,
              23.532452104000072
            ],
            [
              119.60652770700005,
              23.536384474000045
            ],
            [
              119.60504075900008,
              23.53943327500008
            ],
            [
              119.60312790100011,
              23.540443005000043
            ],
            [
              119.60141479600009,
              23.540020733000063
            ],
            [
              119.60027416000003,
              23.53935694300003
            ],
            [
              119.59940339000002,
              23.538403152000058
            ],
            [
              119.5982480450001,
              23.53840759700006
            ],
            [
              119.59617806000006,
              23.539399779000064
            ],
            [
              119.59513548200005,
              23.538211844000045
            ],
            [
              119.5948587360001,
              23.53703903400003
            ],
            [
              119.59583924100002,
              23.534911041000043
            ],
            [
              119.59724156200002,
              23.532808510000052
            ],
            [
              119.59769063500005,
              23.532763897000052
            ],
            [
              119.59973876600009,
              23.531227724000075
            ],
            [
              119.60257746100001,
              23.531467333000023
            ],
            [
              119.60465931400006,
              23.531235767000055
            ],
            [
              119.60669726100002,
              23.530640896000023
            ],
            [
              119.60848281300002,
              23.52973546000004
            ],
            [
              119.60967002000007,
              23.530685710000057
            ],
            [
              119.60938550300011,
              23.531438554000033
            ],
            [
              119.60997165000003,
              23.532452104000072
            ]
          ]
        ]
      },
      "properties": {
        "VILLCODE": "10016010026",
        "COUNTYNAME": "澎湖縣",
        "TOWNNAME": "馬公市",
        "VILLNAME": "鐵線里",
        "VILLENG": "Tiexian Vil.",
        "COUNTYID": "X",
        "COUNTYCODE": "10016",
        "TOWNID": "X01",
        "TOWNCODE": "10016010",
        "NOTE": ""
      }
    },
    {
      "type": "Feature",
      "geometry": {
        "type": "Polygon",
        "coordinates": [
          [
            [
              119.59607846200004,
              23.52258892100008
            ],
            [
              119.59408590700002,
              23.522783899000046
            ],
            [
              119.58752116800008,
              23.52196452000004
            ],
            [
              119.58655582300003,
              23.51985518300006
            ],
            [
              119.58311134400003,
              23.513048346000062
            ],
            [
              119.58227148200001,
              23.51119360100006
            ],
            [
              119.58195006200003,
              23.50928499300005
            ],
            [
              119.58283369700007,
              23.50954807100004
            ],
            [
              119.58416414100009,
              23.509199955000042
            ],
            [
              119.58580628400011,
              23.509798787000022
            ],
            [
              119.58716068500007,
              23.51106012100007
            ],
            [
              119.58786849,
              23.510655625000027
            ],
            [
              119.58895985100003,
              23.511455156000068
            ],
            [
              119.58860584000001,
              23.512149532000024
            ],
            [
              119.58953415700012,
              23.512751019000063
            ],
            [
              119.59177148800006,
              23.512859923000065
            ],
            [
              119.59431887900007,
              23.512712528000066
            ],
            [
              119.59599805500011,
              23.512340409000046
            ],
            [
              119.59665973300002,
              23.51379167600004
            ],
            [
              119.59777848100009,
              23.512098816000048
            ],
            [
              119.60061865600005,
              23.51099980500004
            ],
            [
              119.60166175200004,
              23.50944265000004
            ],
            [
              119.60268096700008,
              23.509097835000034
            ],
            [
              119.60485592300006,
              23.50916164100005
            ],
            [
              119.60626433900006,
              23.50781298000004
            ],
            [
              119.6074230700001,
              23.508004862000064
            ],
            [
              119.6080344940001,
              23.509151521000035
            ],
            [
              119.60781594600007,
              23.512935868000056
            ],
            [
              119.60625622900011,
              23.514797573000067
            ],
            [
              119.60563333200002,
              23.51663079000008
            ],
            [
              119.60065758500002,
              23.51762527300008
            ],
            [
              119.59592148600007,
              23.51898889200004
            ],
            [
              119.59358151300012,
              23.51839959600005
            ],
            [
              119.59607846200004,
              23.52258892100008
            ]
          ]
        ]
      },
      "properties": {
        "VILLCODE": "10016010027",
        "COUNTYNAME": "澎湖縣",
        "TOWNNAME": "馬公市",
        "VILLNAME": "山水里",
        "VILLENG": "Shanshui Vil.",
        "COUNTYID": "X",
        "COUNTYCODE": "10016",
        "TOWNID": "X01",
        "TOWNCODE": "10016010",
        "NOTE": ""
      }
    },
    {
      "type": "Feature",
      "geometry": {
        "type": "Polygon",
        "coordinates": [
          [
            [
              119.60848281300002,
              23.52973546000004
            ],
            [
              119.60669726100002,
              23.530640896000023
            ],
            [
              119.60465931400006,
              23.531235767000055
            ],
            [
              119.60257746100001,
              23.531467333000023
            ],
            [
              119.59973876600009,
              23.531227724000075
            ],
            [
              119.59831231700002,
              23.529402402000073
            ],
            [
              119.59725558900004,
              23.529000112000062
            ],
            [
              119.59632473700003,
              23.527802706000045
            ],
            [
              119.5958945220001,
              23.526526626000077
            ],
            [
              119.59471583600009,
              23.52676364900003
            ],
            [
              119.59436588000005,
              23.526114832000076
            ],
            [
              119.59737447500004,
              23.524692413000025
            ],
            [
              119.59607846200004,
              23.52258892100008
            ],
            [
              119.59358151300012,
              23.51839959600005
            ],
            [
              119.59592148600007,
              23.51898889200004
            ],
            [
              119.60065758500002,
              23.51762527300008
            ],
            [
              119.60563333200002,
              23.51663079000008
            ],
            [
              119.6065824310001,
              23.517202747000056
            ],
            [
              119.60760728100001,
              23.517142316000047
            ],
            [
              119.61006058700002,
              23.518480418000024
            ],
            [
              119.61127445500006,
              23.518861678000064
            ],
            [
              119.61085060000005,
              23.519651192000026
            ],
            [
              119.61173489400005,
              23.521487539000077
            ],
            [
              119.61157677900007,
              23.522501755000064
            ],
            [
              119.61018303900005,
              23.522739745000024
            ],
            [
              119.60894517100007,
              23.522137341000075
            ],
            [
              119.60643187200003,
              23.52214489000005
            ],
            [
              119.60445765700001,
              23.525141421000058
            ],
            [
              119.60547352900005,
              23.527119522000078
            ],
            [
              119.60505651000005,
              23.52774420000003
            ],
            [
              119.60566089600002,
              23.528741902000036
            ],
            [
              119.60730420900006,
              23.529789729000072
            ],
            [
              119.60848281300002,
              23.52973546000004
            ]
          ]
        ]
      },
      "properties": {
        "VILLCODE": "10016010028",
        "COUNTYNAME": "澎湖縣",
        "TOWNNAME": "馬公市",
        "VILLNAME": "鎖港里",
        "VILLENG": "Suogang Vil.",
        "COUNTYID": "X",
        "COUNTYCODE": "10016",
        "TOWNID": "X01",
        "TOWNCODE": "10016010",
        "NOTE": ""
      }
    },
    {
      "type": "Feature",
      "geometry": {
        "type": "Polygon",
        "coordinates": [
          [
            [
              119.59471583600009,
              23.52676364900003
            ],
            [
              119.59354494400009,
              23.527169941000068
            ],
            [
              119.5924950000001,
              23.528002427000047
            ],
            [
              119.59249316900002,
              23.528891874000067
            ],
            [
              119.59170307400007,
              23.530075529000044
            ],
            [
              119.58994578600004,
              23.53110031700004
            ],
            [
              119.58845262300008,
              23.530758321000064
            ],
            [
              119.58814914200002,
              23.53002579400004
            ],
            [
              119.58640847200002,
              23.529145181000047
            ],
            [
              119.58495524200009,
              23.53132007100004
            ],
            [
              119.58272753400001,
              23.532698707000065
            ],
            [
              119.58057403600003,
              23.531747333000055
            ],
            [
              119.58020980900005,
              23.52894943800004
            ],
            [
              119.5803496420001,
              23.52824684600006
            ],
            [
              119.58125889900009,
              23.527629424000054
            ],
            [
              119.58133055500002,
              23.526247590000025
            ],
            [
              119.57996479500002,
              23.525279717000046
            ],
            [
              119.58552465100001,
              23.521538613000075
            ],
            [
              119.58752116800008,
              23.52196452000004
            ],
            [
              119.59408590700002,
              23.522783899000046
            ],
            [
              119.59607846200004,
              23.52258892100008
            ],
            [
              119.59737447500004,
              23.524692413000025
            ],
            [
              119.59436588000005,
              23.526114832000076
            ],
            [
              119.59471583600009,
              23.52676364900003
            ]
          ]
        ]
      },
      "properties": {
        "VILLCODE": "10016010029",
        "COUNTYNAME": "澎湖縣",
        "TOWNNAME": "馬公市",
        "VILLNAME": "五德里",
        "VILLENG": "Wude Vil.",
        "COUNTYID": "X",
        "COUNTYCODE": "10016",
        "TOWNID": "X01",
        "TOWNCODE": "10016010",
        "NOTE": ""
      }
    },
    {
      "type": "Feature",
      "geometry": {
        "type": "MultiPolygon",
        "coordinates": [
          [
            [
              [
                119.53334194800004,
                23.54167307800003
              ],
              [
                119.53082002400004,
                23.541616232000024
              ],
              [
                119.53171691900002,
                23.540579253000033
              ],
              [
                119.53152843500004,
                23.539679170000056
              ],
              [
                119.53254893600001,
                23.538711747000036
              ],
              [
                119.53331440700003,
                23.539018398000053
              ],
              [
                119.53334194800004,
                23.54167307800003
              ]
            ]
          ],
          [
            [
              [
                119.554763234,
                23.530412462000072
              ],
              [
                119.55457739000008,
                23.531415438000067
              ],
              [
                119.55682016700007,
                23.53310503700004
              ],
              [
                119.5572629290001,
                23.533882275000053
              ],
              [
                119.55636147100006,
                23.535230942000055
              ],
              [
                119.55691377300002,
                23.536364465000077
              ],
              [
                119.55679257200006,
                23.538035414000035
              ],
              [
                119.55425949400001,
                23.538807474000066
              ],
              [
                119.55078163700011,
                23.540698017000068
              ],
              [
                119.54977915400002,
                23.54066995900007
              ],
              [
                119.55024331400011,
                23.541959580000025
              ],
              [
                119.55015728900003,
                23.542838035000045
              ],
              [
                119.55101213500006,
                23.54357094100004
              ],
              [
                119.55080848000011,
                23.544571716000064
              ],
              [
                119.55109756500008,
                23.546004178000032
              ],
              [
                119.55088057300009,
                23.547551303000034
              ],
              [
                119.55180565400008,
                23.548530017000076
              ],
              [
                119.54961228800005,
                23.549641678000057
              ],
              [
                119.54807582600006,
                23.550845811000045
              ],
              [
                119.54778093300001,
                23.55162793200003
              ],
              [
                119.54899917800003,
                23.55325126100007
              ],
              [
                119.54777282200007,
                23.55380866300004
              ],
              [
                119.5471487740001,
                23.552422524000065
              ],
              [
                119.54688916300006,
                23.550856762000024
              ],
              [
                119.54631544400002,
                23.549718764000033
              ],
              [
                119.54683486200008,
                23.54890199700003
              ],
              [
                119.54641429100002,
                23.548233013000072
              ],
              [
                119.54532789900009,
                23.547762763000037
              ],
              [
                119.54535027000009,
                23.54650753800007
              ],
              [
                119.54446036500008,
                23.546029822000037
              ],
              [
                119.5430513660001,
                23.546745848000057
              ],
              [
                119.54288686100006,
                23.54805348800005
              ],
              [
                119.54220897900007,
                23.548001675000023
              ],
              [
                119.54205079600001,
                23.546449100000075
              ],
              [
                119.54250078900009,
                23.545492627000044
              ],
              [
                119.54140996000001,
                23.543108046000043
              ],
              [
                119.54145713600008,
                23.541324494000037
              ],
              [
                119.54120590800005,
                23.538869255000066
              ],
              [
                119.54383159700001,
                23.537227951000034
              ],
              [
                119.54460391100008,
                23.538150805000043
              ],
              [
                119.54795043000001,
                23.539493513000025
              ],
              [
                119.54946922800002,
                23.539005058000043
              ],
              [
                119.55020972000011,
                23.53690301100005
              ],
              [
                119.54949276800005,
                23.535612026000024
              ],
              [
                119.54827559400007,
                23.535390579000023
              ],
              [
                119.54829877400005,
                23.53404279700004
              ],
              [
                119.54877777600007,
                23.533239712000068
              ],
              [
                119.55017411500012,
                23.533568882000054
              ],
              [
                119.55174299100008,
                23.533217937000074
              ],
              [
                119.55341106600008,
                23.532002014000057
              ],
              [
                119.5542960350001,
                23.53029673800006
              ],
              [
                119.554763234,
                23.530412462000072
              ]
            ]
          ],
          [
            [
              [
                119.54283169500002,
                23.55489602600005
              ],
              [
                119.54136575200005,
                23.55384013300005
              ],
              [
                119.54180614500001,
                23.55277533800006
              ],
              [
                119.5432809030001,
                23.553519667000046
              ],
              [
                119.54283169500002,
                23.55489602600005
              ]
            ]
          ]
        ]
      },
      "properties": {
        "VILLCODE": "10016010032",
        "COUNTYNAME": "澎湖縣",
        "TOWNNAME": "馬公市",
        "VILLNAME": "風櫃里",
        "VILLENG": "Fenggui Vil.",
        "COUNTYID": "X",
        "COUNTYCODE": "10016",
        "TOWNID": "X01",
        "TOWNCODE": "10016010",
        "NOTE": ""
      }
    },
    {
      "type": "Feature",
      "geometry": {
        "type": "Polygon",
        "coordinates": [
          [
            [
              119.58752116800008,
              23.52196452000004
            ],
            [
              119.58552465100001,
              23.521538613000075
            ],
            [
              119.57996479500002,
              23.525279717000046
            ],
            [
              119.58014011800003,
              23.523877181000046
            ],
            [
              119.57958343600001,
              23.522892745000036
            ],
            [
              119.57844440000008,
              23.521905957000058
            ],
            [
              119.57592019800006,
              23.52116583700007
            ],
            [
              119.57591421500001,
              23.519958005000035
            ],
            [
              119.57589564000011,
              23.518899435000037
            ],
            [
              119.5739936870001,
              23.517844336000053
            ],
            [
              119.57370266400005,
              23.516622979000033
            ],
            [
              119.57184612800006,
              23.514855442000055
            ],
            [
              119.57076925800004,
              23.513071483000033
            ],
            [
              119.57102742000006,
              23.51127359800006
            ],
            [
              119.57084992800003,
              23.51041867300006
            ],
            [
              119.57184411300011,
              23.508649692000063
            ],
            [
              119.57284737500004,
              23.50806583800005
            ],
            [
              119.57536555900003,
              23.507338686000026
            ],
            [
              119.57706899900006,
              23.50783354400005
            ],
            [
              119.57802102900007,
              23.50911902300004
            ],
            [
              119.57912491600007,
              23.509509980000075
            ],
            [
              119.58062058200005,
              23.509156764000068
            ],
            [
              119.58195006200003,
              23.50928499300005
            ],
            [
              119.58227148200001,
              23.51119360100006
            ],
            [
              119.58311134400003,
              23.513048346000062
            ],
            [
              119.58655582300003,
              23.51985518300006
            ],
            [
              119.58752116800008,
              23.52196452000004
            ]
          ]
        ]
      },
      "properties": {
        "VILLCODE": "10016010030",
        "COUNTYNAME": "澎湖縣",
        "TOWNNAME": "馬公市",
        "VILLNAME": "井垵里",
        "VILLENG": "Jing'an Vil.",
        "COUNTYID": "X",
        "COUNTYCODE": "10016",
        "TOWNID": "X01",
        "TOWNCODE": "10016010",
        "NOTE": ""
      }
    },
    {
      "type": "Feature",
      "geometry": {
        "type": "Polygon",
        "coordinates": [
          [
            [
              119.57591421500001,
              23.519958005000035
            ],
            [
              119.57412766300001,
              23.519854097000064
            ],
            [
              119.57344572500006,
              23.52165806200003
            ],
            [
              119.57307307100007,
              23.523370588000034
            ],
            [
              119.57172917300011,
              23.52425819000007
            ],
            [
              119.57145250000008,
              23.525243458000034
            ],
            [
              119.5718599700001,
              23.525982412000076
            ],
            [
              119.57305933800001,
              23.526201495000066
            ],
            [
              119.57411642500006,
              23.52691773600003
            ],
            [
              119.57427738000001,
              23.528039101000047
            ],
            [
              119.57233820600004,
              23.527231293000057
            ],
            [
              119.57121416000007,
              23.529000756000073
            ],
            [
              119.57241075500008,
              23.530127354000058
            ],
            [
              119.571810303,
              23.53104383300007
            ],
            [
              119.57187987800012,
              23.53198494000003
            ],
            [
              119.56802983400007,
              23.531125391000046
            ],
            [
              119.5667286150001,
              23.531780283000046
            ],
            [
              119.56593282500012,
              23.533329542000047
            ],
            [
              119.56568064100009,
              23.53461946300007
            ],
            [
              119.56442577300004,
              23.53367362700004
            ],
            [
              119.566040326,
              23.531710547000046
            ],
            [
              119.56453052300003,
              23.52976331700006
            ],
            [
              119.56290166500003,
              23.529306433000045
            ],
            [
              119.56278243700001,
              23.53019630700004
            ],
            [
              119.56085523900003,
              23.530830834000028
            ],
            [
              119.55978285200001,
              23.528374058000054
            ],
            [
              119.5613360750001,
              23.527388727000073
            ],
            [
              119.56038292300002,
              23.52648466100004
            ],
            [
              119.55839413700005,
              23.526437630000032
            ],
            [
              119.555607398,
              23.52825357300003
            ],
            [
              119.55475368300006,
              23.529304082000067
            ],
            [
              119.554763234,
              23.530412462000072
            ],
            [
              119.5542960350001,
              23.53029673800006
            ],
            [
              119.55353563000006,
              23.52827676000004
            ],
            [
              119.55480251100005,
              23.526865849000046
            ],
            [
              119.5554174450001,
              23.525145726000062
            ],
            [
              119.55698641200001,
              23.52346508200003
            ],
            [
              119.55871304200002,
              23.524199340000052
            ],
            [
              119.56032553600005,
              23.523922646000074
            ],
            [
              119.5616628460001,
              23.524423497000043
            ],
            [
              119.56284052500007,
              23.526096538000047
            ],
            [
              119.56453853000005,
              23.526275500000054
            ],
            [
              119.56724586500002,
              23.525823194000054
            ],
            [
              119.569941201,
              23.524434048000046
            ],
            [
              119.57250721500009,
              23.52209494600004
            ],
            [
              119.57301668100001,
              23.52116299900007
            ],
            [
              119.5739936870001,
              23.517844336000053
            ],
            [
              119.57589564000011,
              23.518899435000037
            ],
            [
              119.57591421500001,
              23.519958005000035
            ]
          ]
        ]
      },
      "properties": {
        "VILLCODE": "10016010031",
        "COUNTYNAME": "澎湖縣",
        "TOWNNAME": "馬公市",
        "VILLNAME": "[嵵]裡里",
        "VILLENG": "Shili Vil.",
        "COUNTYID": "X",
        "COUNTYCODE": "10016",
        "TOWNID": "X01",
        "TOWNCODE": "10016010",
        "NOTE": ""
      }
    }
  ]
}